[{"OBJECT_NAME":"STARLINK-35419","OBJECT_ID":"2025-268C","EPOCH":"2026-03-09T08:00:01.000224","MEAN_MOTION":15.27566548,"ECCENTRICITY":0.00017109,"INCLINATION":43.0012,"RA_OF_ASC_NODE":349.159,"ARG_OF_PERICENTER":267.5724,"MEAN_ANOMALY":115.5605,"EPHEMERIS_TYPE":0,"CLASSIFICATION_TYPE":"U","NORAD_CAT_ID":66559,"ELEMENT_SET_NO":999,"REV_AT_EPOCH":582,"BSTAR":0.0011440373,"MEAN_MOTION_DOT":0.00031341,"MEAN_MOTION_DDOT":0},{"OBJECT_NAME":"DMSP 5D-2 F14 DEB","OBJECT_ID":"1997-012G","EPOCH":"2026-03-09T18:05:19.087296","MEAN_MOTION":15.2878374,"ECCENTRICITY":0.00491251,"INCLINATION":99.2047,"RA_OF_ASC_NODE":151.8456,"ARG_OF_PERICENTER":247.1908,"MEAN_ANOMALY":112.4133,"EPHEMERIS_TYPE":0,"CLASSIFICATION_TYPE":"U","NORAD_CAT_ID":62936,"ELEMENT_SET_NO":999,"REV_AT_EPOCH":6425,"BSTAR":0.05046686,"MEAN_MOTION_DOT":0.01624988,"MEAN_MOTION_DDOT":0}]
